[{"OBJECT_NAME":"STARLINK-34351","OBJECT_ID":"2025-127T","EPOCH":"2026-03-09T07:32:12.472800","MEAN_MOTION":15.27598977,"ECCENTRICITY":1.197e-5,"INCLINATION":42.995,"RA_OF_ASC_NODE":181.5511,"ARG_OF_PERICENTER":283.2524,"MEAN_ANOMALY":76.8314,"EPHEMERIS_TYPE":0,"CLASSIFICATION_TYPE":"U","NORAD_CAT_ID":64387,"ELEMENT_SET_NO":999,"REV_AT_EPOCH":4241,"BSTAR":0.0012051213,"MEAN_MOTION_DOT":0.00033068,"MEAN_MOTION_DDOT":0},{"OBJECT_NAME":"BANDWAGON-4 OBJECT Q","OBJECT_ID":"2025-248Q","EPOCH":"2026-03-08T23:44:19.819392","MEAN_MOTION":15.23978167,"ECCENTRICITY":0.00112804,"INCLINATION":45.4076,"RA_OF_ASC_NODE":295.4821,"ARG_OF_PERICENTER":209.4727,"MEAN_ANOMALY":150.5526,"EPHEMERIS_TYPE":0,"CLASSIFICATION_TYPE":"U","NORAD_CAT_ID":66307,"ELEMENT_SET_NO":999,"REV_AT_EPOCH":1930,"BSTAR":0.0009224217,"MEAN_MOTION_DOT":0.00022547,"MEAN_MOTION_DDOT":0}]
